stk.v.5.0 
BEGIN Ephemeris 
NumberOfEphemerisPoints 240
ScenarioEpoch 	14 Sep 2020 04:28:15
DistanceUnit 	 Kilometers 
CentralBody Earth
CoordinateSystem Inertial
EphemerisTimePosVel
3.75670467187300e+06 -8.51766288673369e+03 -1.42680231189713e+04 2.05771193043052e+04 3.68162626527373e+00 -6.82208108632243e-01 1.05553871514437e+00 
3.75676467187300e+06 -8.34230204362639e+03 -1.43001312723192e+04 2.06268348227423e+04 3.69026639838494e+00 -6.67567944804680e-01 1.03442315302716e+00 
3.75682467187300e+06 -8.16631217749035e+03 -1.43315813752318e+04 2.06756054509036e+04 3.69873699269551e+00 -6.52876971310253e-01 1.01323081072340e+00 
3.75688467187300e+06 -7.98969310209912e+03 -1.43623705078814e+04 2.07234269505713e+04 3.70703728975196e+00 -6.38135188821408e-01 9.91961675915966e-01 
3.75694467187300e+06 -7.81244461340138e+03 -1.43924956606661e+04 2.07702949534301e+04 3.71516650807892e+00 -6.23342596813451e-01 9.70615734145187e-01 
3.75700467187300e+06 -7.63456649127642e+03 -1.44219537331741e+04 2.08162049595314e+04 3.72312384291012e+00 -6.08499193714676e-01 9.49192969022210e-01 
3.75706467187300e+06 -7.45605850129588e+03 -1.44507415331300e+04 2.08611523357317e+04 3.73090846591510e+00 -5.93604977057047e-01 9.27693362443104e-01 
3.75712467187300e+06 -7.27692039651990e+03 -1.44788557753180e+04 2.09051323140975e+04 3.73851952492004e+00 -5.78659943629824e-01 9.06116894807132e-01 
3.75718467187300e+06 -7.09715191932816e+03 -1.45062930804838e+04 2.09481399902773e+04 3.74595614362289e+00 -5.63664089636156e-01 8.84463545239230e-01 
3.75724467187300e+06 -6.91675280326493e+03 -1.45330499742153e+04 2.09901703218439e+04 3.75321742130359e+00 -5.48617410850894e-01 8.62733291814178e-01 
3.75730467187300e+06 -6.73572277494840e+03 -1.45591228857976e+04 2.10312181265975e+04 3.76030243252722e+00 -5.33519902783833e-01 8.40926111788527e-01 
3.75736467187300e+06 -6.55406155597237e+03 -1.45845081470503e+04 2.10712780808431e+04 3.76721022684306e+00 -5.18371560842366e-01 8.19041981831602e-01 
3.75742467187300e+06 -6.37176886488305e+03 -1.46092019911361e+04 2.11103447176256e+04 3.77393982847613e+00 -5.03172380500469e-01 7.97080878265578e-01 
3.75748467187300e+06 -6.18884441916613e+03 -1.46332005513500e+04 2.11484124249356e+04 3.78049023601382e+00 -4.87922357468592e-01 7.75042777306768e-01 
3.75754467187300e+06 -6.00528793728486e+03 -1.46564998598821e+04 2.11854754438769e+04 3.78686042208592e+00 -4.72621487867867e-01 7.52927655313090e-01 
3.75760467187300e+06 -5.82109914077273e+03 -1.46790958465552e+04 2.12215278667958e+04 3.79304933303799e+00 -4.57269768408928e-01 7.30735489038093e-01 
3.75766467187300e+06 -5.63627775632655e+03 -1.47009843375421e+04 2.12565636353813e+04 3.79905588859991e+00 -4.41867196570811e-01 7.08466255885036e-01 
3.75772467187300e+06 -5.45082351800287e+03 -1.47221610540515e+04 2.12905765387173e+04 3.80487898154601e+00 -4.26413770788547e-01 6.86119934173430e-01 
3.75778467187300e+06 -5.26473616940395e+03 -1.47426216109942e+04 2.13235602113072e+04 3.81051747735060e+00 -4.10909490639917e-01 6.63696503404293e-01 
3.75784467187300e+06 -5.07801546596057e+03 -1.47623615156189e+04 2.13555081310514e+04 3.81597021383535e+00 -3.95354357040356e-01 6.41195944537097e-01 
3.75790467187300e+06 -4.89066117722942e+03 -1.47813761661244e+04 2.13864136171924e+04 3.82123600081112e+00 -3.79748372439122e-01 6.18618240268449e-01 
3.75796467187300e+06 -4.70267308926222e+03 -1.47996608502445e+04 2.14162698282161e+04 3.82631361971232e+00 -3.64091541021494e-01 5.95963375319417e-01 
3.75802467187300e+06 -4.51405100703546e+03 -1.48172107438040e+04 2.14450697597127e+04 3.83120182322435e+00 -3.48383868916087e-01 5.73231336730138e-01 
3.75808467187300e+06 -4.32479475690868e+03 -1.48340209092510e+04 2.14728062422012e+04 3.83589933490471e+00 -3.32625364404600e-01 5.50422114157884e-01 
3.75814467187300e+06 -4.13490418918200e+03 -1.48500862941568e+04 2.14994719389053e+04 3.84040484879601e+00 -3.16816038139880e-01 5.27535700187038e-01 
3.75820467187300e+06 -3.94437918067860e+03 -1.48654017296916e+04 2.15250593434939e+04 3.84471702903268e+00 -3.00955903366132e-01 5.04572090642091e-01 
3.75826467187300e+06 -3.75321963741888e+03 -1.48799619290684e+04 2.15495607777741e+04 3.84883450943976e+00 -2.85044976146814e-01 4.81531284911663e-01 
3.75832467187300e+06 -3.56142549734521e+03 -1.48937614859600e+04 2.15729683893432e+04 3.85275589312457e+00 -2.69083275596794e-01 4.58413286278589e-01 
3.75838467187300e+06 -3.36899673311975e+03 -1.49067948728851e+04 2.15952741491965e+04 3.85647975206088e+00 -2.53070824120665e-01 4.35218102258814e-01 
3.75844467187300e+06 -3.17593335500737e+03 -1.49190564395654e+04 2.16164698492884e+04 3.86000462666515e+00 -2.37007647658179e-01 4.11945744950496e-01 
3.75850467187300e+06 -2.98223541380366e+03 -1.49305404112524e+04 2.16365471000524e+04 3.86332902536565e+00 -2.20893775933500e-01 3.88596231388532e-01 
3.75856467187300e+06 -2.78790300387427e+03 -1.49412408870229e+04 2.16554973278705e+04 3.86645142416315e+00 -2.04729242713772e-01 3.65169583912466e-01 
3.75862467187300e+06 -2.59293626625368e+03 -1.49511518380445e+04 2.16733117724994e+04 3.86937026618407e+00 -1.88514086072688e-01 3.41665830541530e-01 
3.75868467187300e+06 -2.39733539182738e+03 -1.49602671058090e+04 2.16899814844491e+04 3.87208396122566e+00 -1.72248348661055e-01 3.18085005359705e-01 
3.75874467187300e+06 -2.20110062461905e+03 -1.49685804003337e+04 2.17054973223122e+04 3.87459088529268e+00 -1.55932077986133e-01 2.94427148913386e-01 
3.75880467187300e+06 -2.00423226514340e+03 -1.49760852983319e+04 2.17198499500469e+04 3.87688938012639e+00 -1.39565326696508e-01 2.70692308616939e-01 
3.75886467187300e+06 -1.80673067387180e+03 -1.49827752413494e+04 2.17330298342098e+04 3.87897775272488e+00 -1.23148152876373e-01 2.46880539171792e-01 
3.75892467187300e+06 -1.60859627477599e+03 -1.49886435338690e+04 2.17450272411407e+04 3.88085427485526e+00 -1.06680620346371e-01 2.22991902994890e-01 
3.75898467187300e+06 -1.40982955899297e+03 -1.49936833413815e+04 2.17558322340951e+04 3.88251718255715e+00 -9.01627989745467e-02 1.99026470661704e-01 
3.75904467187300e+06 -1.21043108857185e+03 -1.49978876884232e+04 2.17654346703285e+04 3.88396467563780e+00 -7.35947649941702e-02 1.74984321359069e-01 
3.75910467187300e+06 -1.01040150034105e+03 -1.50012494565791e+04 2.17738241981281e+04 3.88519491715846e+00 -5.69766013316039e-02 1.50865543352449e-01 
3.75916467187300e+06 -8.09741509892101e+02 -1.50037613824525e+04 2.17809902537926e+04 3.88620603291192e+00 -4.03083979439078e-02 1.26670234467209e-01 
3.75922467187300e+06 -6.08451915654210e+02 -1.50054160555993e+04 2.17869220585609e+04 3.88699611089152e+00 -2.35902521640273e-02 1.02398502580738e-01 
3.75928467187300e+06 -4.06533603122334e+02 -1.50062059164278e+04 2.17916086154871e+04 3.88756320075090e+00 -6.82226905878203e-03 7.80504661330153e-02 
3.75934467187300e+06 -2.03987549168200e+02 -1.50061232540632e+04 2.17950387062625e+04 3.88790531325508e+00 9.99543820621973e-03 5.36262546470798e-02 
3.75940467187300e+06 -8.14826524208911e-01 -1.50051602041769e+04 2.17972008879835e+04 3.88802041972225e+00 2.68627479872660e-02 2.91260092702583e-02 
3.75946467187300e+06 2.02983391646019e+02 -1.50033087467791e+04 2.17980834898658e+04 3.88790645145665e+00 4.37795297759938e-02 4.54988332574047e-03 
3.75952467187300e+06 4.07405827004719e+02 -1.50005607039768e+04 2.17976746099033e+04 3.88756129917210e+00 6.07456437984951e-02 -2.01019571151670e-02 
3.75958467187300e+06 6.12451091164283e+02 -1.49969077376941e+04 2.17959621114721e+04 3.88698281240638e+00 7.77609406033689e-02 -4.48293326448872e-02 
3.75964467187300e+06 8.18117680690057e+02 -1.49923413473572e+04 2.17929336198792e+04 3.88616879892627e+00 9.48252606396530e-02 -6.96320499168885e-02 
3.75970467187300e+06 1.02440397190239e+03 -1.49868528675421e+04 2.17885765188547e+04 3.88511702412330e+00 1.11938433818073e-01 -9.45099010189216e-02 
3.75976467187300e+06 1.23130821557506e+03 -1.49804334655851e+04 2.17828779469882e+04 3.88382521040004e+00 1.29100279063662e-01 -1.19462662833894e-01 
3.75982467187300e+06 1.43882853143389e+03 -1.49730741391575e+04 2.17758247941083e+04 3.88229103654693e+00 1.46310603851788e-01 -1.44490096376799e-01 
3.75988467187300e+06 1.64696290249750e+03 -1.49647657138022e+04 2.17674036976056e+04 3.88051213710983e+00 1.63569203731056e-01 -1.69591946112751e-01 
3.75994467187300e+06 1.85570916924994e+03 -1.49554988404331e+04 2.17576010386980e+04 3.87848610174785e+00 1.80875861832262e-01 -1.94767939254921e-01 
3.76000467187300e+06 2.06506502362856e+03 -1.49452639927977e+04 2.17464029386393e+04 3.87621047458184e+00 1.98230348362007e-01 -2.20017785040356e-01 
3.76006467187300e+06 2.27502800282253e+03 -1.49340514649023e+04 2.17337952548703e+04 3.87368275353332e+00 2.15632420080600e-01 -2.45341173983146e-01 
3.76012467187300e+06 2.48559548287822e+03 -1.49218513683998e+04 2.17197635771120e+04 3.87090038965398e+00 2.33081819763957e-01 -2.70737777104497e-01 
3.76018467187300e+06 2.69676467212183e+03 -1.49086536299399e+04 2.17042932234008e+04 3.86786078644546e+00 2.50578275650335e-01 -2.96207245140963e-01 
3.76024467187300e+06 2.90853260434805e+03 -1.48944479884828e+04 2.16873692360677e+04 3.86456129916995e+00 2.68121500867694e-01 -3.21749207724684e-01 
3.76030467187300e+06 3.12089613180998e+03 -1.48792239925757e+04 2.16689763776585e+04 3.86099923415130e+00 2.85711192844603e-01 -3.47363272539883e-01 
3.76036467187300e+06 3.33385191799603e+03 -1.48629709975920e+04 2.16490991267967e+04 3.85717184806648e+00 3.03347032703496e-01 -3.73049024453914e-01 
3.76042467187300e+06 3.54739643015763e+03 -1.48456781629347e+04 2.16277216739902e+04 3.85307634722810e+00 3.21028684633326e-01 -3.98806024618511e-01 
3.76048467187300e+06 3.76152593162064e+03 -1.48273344492025e+04 2.16048279173801e+04 3.84870988685733e+00 3.38755795244318e-01 -4.24633809545227e-01 
3.76054467187300e+06 3.97623647382837e+03 -1.48079286153216e+04 2.15804014584345e+04 3.84406957034815e+00 3.56527992900540e-01 -4.50531890148779e-01 
END Ephemeris